ASTROCAST-0404          
1 55112U 23001DH  26068.80836714  .00008870  00000+0  34436-3 0  9994
2 55112  97.5646 161.5422 0006847   1.1317 358.9936 15.26309833129366
STARLINK-31553          
1 59363U 24060R   26068.56793379  .00000087  00000+0  12696-4 0  9991
2 59363  43.0043 253.6587 0001887 285.2179  74.8464 15.27570853110127
